0 INTELSAT 24 (AMOS 1)
1 23865U 96030B   13281.69791630 -.00000167  00000-0  00000+0 0  9824
2 23865 004.5369 064.4927 0012131 066.6376 293.6128 00.97118795 63576
0 INTELSAT 24 (AMOS 1)
1 23865U 96030B   13283.75715115  .00000000  00000-0  10000-3 0  9849
2 23865 004.5428 064.4675 0011498 067.7925 292.4457 00.97114154 63598
0 INTELSAT 24 (AMOS 1)
1 23865U 96030B   13285.81646197 -.00000107  00000-0  00000+0 0  9845
2 23865 004.5458 064.4527 0012000 067.3113 292.9416 00.97117186 63613
0 INTELSAT 24 (AMOS 1)
1 23865U 96030B   13287.87577695 -.00000067  00000-0  00000+0 0  9855
2 23865 004.5500 064.4344 0011949 067.7426 292.5155 00.97116456 63637
0 INTELSAT 24 (AMOS 1)
1 23865U 96030B   13289.93499116 -.00000059  00000-0  00000+0 0  9867
2 23865 004.5545 064.4153 0011926 067.7144 292.5123 00.97116483 63653
0 INTELSAT 24 (AMOS 1)
1 23865U 96030B   13289.93499470  .00000000  00000-0  10000-3 0  9871
2 23865 004.5559 064.4126 0011217 068.5181 291.7088 00.97112574 63659
0 INTELSAT 24 (AMOS 1)
1 23865U 96030B   13293.02369401 -.00000107  00000-0  00000+0 0  9870
2 23865 004.5610 064.3866 0011954 068.0460 292.0995 00.97117638 63680
0 INTELSAT 24 (AMOS 1)
1 23865U 96030B   13295.08286222 -.00000142  00000-0  00000+0 0  9887
2 23865 004.5653 064.3673 0011937 068.3595 291.7520 00.97118337 63706
